{
  "type": "FeatureCollection",
  "features": [
    {
      "type": "Feature",
      "properties": {
        "norad_id": 38709,
        "name": "EXACTVIEW-1 (ADS-1B)",
        "group": "resource",
        "lat": 49.73999938591922,
        "lon": 82.82517023006089,
        "alt_km": 799.4447653636016,
        "timestamp": "2025-12-11T05:00:25.967918+00:00",
        "meta_object_name": "EXACTVIEW-1 (ADS-1B)",
        "meta_object_id": "2012-039C",
        "meta_epoch": "2025-12-10T13:36:13.296384",
        "meta_mean_motion": 14.24906733,
        "meta_eccentricity": 0.0010782,
        "meta_inclination": 98.9635,
        "meta_ra_of_asc_node": 92.9113,
        "meta_arg_of_pericenter": 0.5572,
        "meta_mean_anomaly": 359.5616,
        "meta_ephemeris_type": 0,
        "meta_classification_type": "U",
        "meta_norad_cat_id": 38709,
        "meta_element_set_no": 999,
        "meta_rev_at_epoch": 69584,
        "meta_bstar": 0.00014175,
        "meta_mean_motion_dot": 2.85e-06,
        "meta_mean_motion_ddot": 0,
        "tle_line1": "1 38709U 12039C   25344.56682056  .00000285  00000+0  14175-3 0  9993",
        "tle_line2": "2 38709  98.9635  92.9113 0010782   0.5572 359.5616 14.24906733695847"
      },
      "geometry": {
        "type": "Point",
        "coordinates": [
          82.82517023006089,
          49.73999938591922
        ]
      }
    },
    {
      "type": "Feature",
      "properties": {
        "norad_id": 38755,
        "name": "SPOT 6",
        "group": "resource",
        "lat": -71.69231181059429,
        "lon": -155.66898331612774,
        "alt_km": 705.7108627390426,
        "timestamp": "2025-12-11T05:00:25.967928+00:00",
        "meta_object_name": "SPOT 6",
        "meta_object_id": "2012-047A",
        "meta_epoch": "2025-12-10T22:54:33.293664",
        "meta_mean_motion": 14.58599639,
        "meta_eccentricity": 0.00010966,
        "meta_inclination": 98.157,
        "meta_ra_of_asc_node": 49.7715,
        "meta_arg_of_pericenter": 95.636,
        "meta_mean_anomaly": 264.4964,
        "meta_ephemeris_type": 0,
        "meta_classification_type": "U",
        "meta_norad_cat_id": 38755,
        "meta_element_set_no": 999,
        "meta_rev_at_epoch": 70561,
        "meta_bstar": 0.00010753094,
        "meta_mean_motion_dot": 4.55e-06,
        "meta_mean_motion_ddot": 0,
        "tle_line1": "1 38755U 12047A   25344.95455201  .00000455  00000+0  10753-3 0  9993",
        "tle_line2": "2 38755  98.1570  49.7715 0001096  95.6360 264.4964 14.58599639705611"
      },
      "geometry": {
        "type": "Point",
        "coordinates": [
          -155.66898331612774,
          -71.69231181059429
        ]
      }
    },
    {
      "type": "Feature",
      "properties": {
        "norad_id": 39019,
        "name": "PLEIADES 1B",
        "group": "resource",
        "lat": 27.233303720132582,
        "lon": -117.87085798096568,
        "alt_km": 696.5016329055852,
        "timestamp": "2025-12-11T05:00:25.967938+00:00",
        "meta_object_name": "PLEIADES 1B",
        "meta_object_id": "2012-068A",
        "meta_epoch": "2025-12-10T21:43:31.009728",
        "meta_mean_motion": 14.58549149,
        "meta_eccentricity": 0.000123,
        "meta_inclination": 98.1792,
        "meta_ra_of_asc_node": 57.5855,
        "meta_arg_of_pericenter": 81.346,
        "meta_mean_anomaly": 278.7879,
        "meta_ephemeris_type": 0,
        "meta_classification_type": "U",
        "meta_norad_cat_id": 39019,
        "meta_element_set_no": 999,
        "meta_rev_at_epoch": 69340,
        "meta_bstar": 0.0001098929,
        "meta_mean_motion_dot": 4.65e-06,
        "meta_mean_motion_ddot": 0,
        "tle_line1": "1 39019U 12068A   25344.90522002  .00000465  00000+0  10989-3 0  9991",
        "tle_line2": "2 39019  98.1792  57.5855 0001230  81.3460 278.7879 14.58549149693403"
      },
      "geometry": {
        "type": "Point",
        "coordinates": [
          -117.87085798096568,
          27.233303720132582
        ]
      }
    },
    {
      "type": "Feature",
      "properties": {
        "norad_id": 39030,
        "name": "GOKTURK 2",
        "group": "resource",
        "lat": -80.47905775823045,
        "lon": -119.40023230790632,
        "alt_km": 652.2719843986442,
        "timestamp": "2025-12-11T05:00:25.967948+00:00",
        "meta_object_name": "GOKTURK 2",
        "meta_object_id": "2012-073A",
        "meta_epoch": "2025-12-10T22:52:41.164608",
        "meta_mean_motion": 14.75288653,
        "meta_eccentricity": 9.74e-05,
        "meta_inclination": 97.6892,
        "meta_ra_of_asc_node": 186.6946,
        "meta_arg_of_pericenter": 101.7733,
        "meta_mean_anomaly": 258.3586,
        "meta_ephemeris_type": 0,
        "meta_classification_type": "U",
        "meta_norad_cat_id": 39030,
        "meta_element_set_no": 999,
        "meta_rev_at_epoch": 69675,
        "meta_bstar": 0.00020933348,
        "meta_mean_motion_dot": 1.37e-05,
        "meta_mean_motion_ddot": 0,
        "tle_line1": "1 39030U 12073A   25344.95325422  .00001370  00000+0  20933-3 0  9998",
        "tle_line2": "2 39030  97.6892 186.6946 0000974 101.7733 258.3586 14.75288653696759"
      },
      "geometry": {
        "type": "Point",
        "coordinates": [
          -119.40023230790632,
          -80.47905775823045
        ]
      }
    },
    {
      "type": "Feature",
      "properties": {
        "norad_id": 39084,
        "name": "LANDSAT 8",
        "group": "resource",
        "lat": -29.481814904241208,
        "lon": 57.984969875300976,
        "alt_km": 708.780371792297,
        "timestamp": "2025-12-11T05:00:25.967958+00:00",
        "meta_object_name": "LANDSAT 8",
        "meta_object_id": "2013-008A",
        "meta_epoch": "2025-12-10T22:33:05.385024",
        "meta_mean_motion": 14.57111091,
        "meta_eccentricity": 0.00011046,
        "meta_inclination": 98.2074,
        "meta_ra_of_asc_node": 53.0396,
        "meta_arg_of_pericenter": 87.9161,
        "meta_mean_anomaly": 272.2164,
        "meta_ephemeris_type": 0,
        "meta_classification_type": "U",
        "meta_norad_cat_id": 39084,
        "meta_element_set_no": 999,
        "meta_rev_at_epoch": 67048,
        "meta_bstar": 0.00015116231,
        "meta_mean_motion_dot": 6.36e-06,
        "meta_mean_motion_ddot": 0,
        "tle_line1": "1 39084U 13008A   25344.93964566  .00000636  00000+0  15116-3 0  9993",
        "tle_line2": "2 39084  98.2074  53.0396 0001104  87.9161 272.2164 14.57111091670489"
      },
      "geometry": {
        "type": "Point",
        "coordinates": [
          57.984969875300976,
          -29.481814904241208
        ]
      }
    },
    {
      "type": "Feature",
      "properties": {
        "norad_id": 39086,
        "name": "SARAL",
        "group": "resource",
        "lat": 81.44426682197516,
        "lon": 79.11776031136468,
        "alt_km": 773.1745864760815,
        "timestamp": "2025-12-11T05:00:25.967968+00:00",
        "meta_object_name": "SARAL",
        "meta_object_id": "2013-009A",
        "meta_epoch": "2025-12-10T21:53:04.541568",
        "meta_mean_motion": 14.32756039,
        "meta_eccentricity": 0.00028362,
        "meta_inclination": 98.5503,
        "meta_ra_of_asc_node": 168.8662,
        "meta_arg_of_pericenter": 112.0314,
        "meta_mean_anomaly": 248.1171,
        "meta_ephemeris_type": 0,
        "meta_classification_type": "U",
        "meta_norad_cat_id": 39086,
        "meta_element_set_no": 999,
        "meta_rev_at_epoch": 66864,
        "meta_bstar": 9.2243425e-05,
        "meta_mean_motion_dot": 2.08e-06,
        "meta_mean_motion_ddot": 0,
        "tle_line1": "1 39086U 13009A   25344.91185812  .00000208  00000+0  92243-4 0  9995",
        "tle_line2": "2 39086  98.5503 168.8662 0002836 112.0314 248.1171 14.32756039668640"
      },
      "geometry": {
        "type": "Point",
        "coordinates": [
          79.11776031136468,
          81.44426682197516
        ]
      }
    },
    {
      "type": "Feature",
      "properties": {
        "norad_id": 39150,
        "name": "GAOFEN-1",
        "group": "resource",
        "lat": -13.279375248188188,
        "lon": 57.780249425838306,
        "alt_km": 656.8650157918137,
        "timestamp": "2025-12-11T05:00:25.967978+00:00",
        "meta_object_name": "GAOFEN-1",
        "meta_object_id": "2013-018A",
        "meta_epoch": "2025-12-10T22:33:44.264160",
        "meta_mean_motion": 14.76526736,
        "meta_eccentricity": 0.00180767,
        "meta_inclination": 97.9324,
        "meta_ra_of_asc_node": 55.6307,
        "meta_arg_of_pericenter": 148.4718,
        "meta_mean_anomaly": 211.7579,
        "meta_ephemeris_type": 0,
        "meta_classification_type": "U",
        "meta_norad_cat_id": 39150,
        "meta_element_set_no": 999,
        "meta_rev_at_epoch": 68046,
        "meta_bstar": 0.0001020039,
        "meta_mean_motion_dot": 6.62e-06,
        "meta_mean_motion_ddot": 0,
        "tle_line1": "1 39150U 13018A   25344.94009565  .00000662  00000+0  10200-3 0  9996",
        "tle_line2": "2 39150  97.9324  55.6307 0018076 148.4718 211.7579 14.76526736680468"
      },
      "geometry": {
        "type": "Point",
        "coordinates": [
          57.780249425838306,
          -13.279375248188188
        ]
      }
    }
  ]
}